ONEWEB-0156             
1 48052U 21025L   24262.50211818  .00000362  00000+0  95578-3 0  9998
2 48052  87.8850  86.8978 0001721  87.9277 272.2049 13.13468166169993
ONEWEB-0161             
1 48053U 21025M   24262.47513623 -.00000229  00000+0 -66158-3 0  9990
2 48053  87.8853  86.9125 0001920  88.2895 271.8454 13.13468750169920
ONEWEB-0158             
1 48054U 21025N   24262.51322780  .00000371  00000+0  98130-3 0  9999
2 48054  87.8850  86.8935 0001544  87.1326 272.9980 13.13470007170055
ONEWEB-0157             
1 48055U 21025P   24262.53702537 -.00000128  00000+0 -38677-3 0  9996
2 48055  87.8850  86.9024 0001842  82.6039 277.5299 13.13467761169996
ONEWEB-0162             
1 48056U 21025Q   24262.50053977  .00000275  00000+0  71920-3 0  9990
2 48056  87.8848  86.9042 0001656  84.2677 275.8640 13.13469168169964
ONEWEB-0155             
1 48057U 21025R   24262.52115505  .00000202  00000+0  51863-3 0  9993
2 48057  87.8850  86.9120 0001894  91.2868 268.8478 13.13467129170103
ONEWEB-0149             
1 48058U 21025S   24262.54180547 -.00000198  00000+0 -57839-3 0  9999
2 48058  87.8849  86.9037 0001615  80.6175 279.5136 13.13468899169915
ONEWEB-0148             
1 48059U 21025T   24262.50687488  .00000315  00000+0  82637-3 0  9995
2 48059  87.8853  86.9243 0001883  68.0973 292.0356 13.13468452170037
ONEWEB-0160             
1 48060U 21025U   24262.52273779  .00000261  00000+0  68068-3 0  9995
2 48060  87.8852  86.9171 0001057 116.3997 243.7241 13.13469021169985
ONEWEB-0163             
1 48061U 21025V   24262.50847365  .00001323  00000+0  35872-2 0  9998
2 48061  87.8854  86.9112 0002244  92.3038 267.8348 13.13475138170108
ONEWEB-0159             
1 48062U 21025W   24262.49734792  .00000253  00000+0  65783-3 0  9992
2 48062  87.8849  86.8948 0001844  81.6264 278.5074 13.13468271170022
ONEWEB-0164             
1 48063U 21025X   24262.55607319 -.00000197  00000+0 -57471-3 0  9998
2 48063  87.8848  86.8929 0001712  92.2955 267.8370 13.13468797170012
ONEWEB-0167             
1 48064U 21025Y   24262.50927315  .00000395  00000+0  10471-2 0  9991
2 48064  87.8851  86.9159 0001912  85.2481 274.8867 13.13469265169996
ONEWEB-0166             
1 48065U 21025Z   24262.53067213 -.00000077  00000+0 -24466-3 0  9996
2 48065  87.8846  86.8910 0001683  81.7983 278.3337 13.13467051170071
ONEWEB-0151             
1 48066U 21025AA  24262.53225978 -.00000135  00000+0 -40524-3 0  9999
2 48066  87.8850  86.9067 0001778  92.4983 267.6349 13.13467008170015
ONEWEB-0170             
1 48067U 21025AB  24262.54021198 -.00000317  00000+0 -90404-3 0  9993
2 48067  87.8851  86.9078 0001684 110.0106 250.1205 13.13468132169979
ONEWEB-0168             
1 48068U 21025AC  24262.52593085  .00000101  00000+0  24282-3 0  9991
2 48068  87.8854  86.8833 0001786  87.1111 273.0222 13.13468850169985
ONEWEB-0173             
1 48069U 21025AD  24262.51799352  .00000225  00000+0  57984-3 0  9998
2 48069  87.8854  86.8947 0002183  90.1633 269.9746 13.13469347170223
ONEWEB-0171             
1 48070U 21025AE  24262.55448897 -.00000183  00000+0 -53592-3 0  9995
2 48070  87.8852  86.9232 0001804  92.1471 267.9865 13.13469516170040
ONEWEB-0172             
1 48071U 21025AF  24262.53385700 -.00000076  00000+0 -24370-3 0  9990
2 48071  87.8855  86.8939 0001892  91.6909 268.4437 13.13468867170931
ONEWEB-0174             
1 48072U 21025AG  24262.51640886  .00000336  00000+0  88408-3 0  9997
2 48072  87.8853  86.9116 0001675  83.3213 276.8107 13.13469064170255
ONEWEB-0175             
1 48073U 21025AH  24262.54497275 -.00000296  00000+0 -84658-3 0  9993
2 48073  87.8846  86.8886 0001812 100.3409 259.7924 13.13468730169918
ONEWEB-0177             
1 48074U 21025AJ  24262.55766063 -.00003512  00000+0 -96546-2 0  9991
2 48074  87.8847  86.8954 0002171  79.5870 280.5503 13.13486341170100
ONEWEB-0178             
1 48075U 21025AK  24262.49908258  .00000332  00000+0  87460-3 0  9990
2 48075  87.8858  86.9318 0001876  84.3847 275.7496 13.13468959170143
ONEWEB-0108             
1 48076U 21025AL  24262.53545073 -.00000165  00000+0 -48811-3 0  9991
2 48076  87.8849  86.8967 0001508  84.5021 275.6280 13.13468232170077
ONEWEB-0169             
1 48077U 21025AM  24262.49102726  .00000109  00000+0  26284-3 0  9997
2 48077  87.8847  86.9181 0001539  84.0521 276.0783 13.13470931168720
ONEWEB-0176             
1 48210U 21031A   24262.52985048 -.00000212  00000+0 -60567-3 0  9992
2 48210  87.8954  56.3052 0001747  94.7382 265.3947 13.14501067164679
ONEWEB-0184             
1 48211U 21031B   24262.50290328  .00000255  00000+0  65234-3 0  9992
2 48211  87.8950  56.2907 0002468 114.4272 245.7115 13.14501875164646
ONEWEB-0179             
1 48212U 21031C   24262.47276303 -.00000122  00000+0 -36374-3 0  9994
2 48212  87.8953  56.3033 0001818  91.0864 269.0474 13.14502757164687
ONEWEB-0180             
1 48213U 21031D   24262.50606652  .00000193  00000+0  48670-3 0  9991
2 48213  87.8951  56.2920 0001905  90.6156 269.5192 13.14502980164574
ONEWEB-0218             
1 48214U 21031E   24262.45214617 -.00000194  00000+0 -55719-3 0  9997
2 48214  87.8953  56.3044 0002715 107.9881 252.1545 13.14503052164720
ONEWEB-0209             
1 48215U 21031F   24262.44104753 -.00000017  00000+0 -79249-4 0  9995
2 48215  87.8955  56.3426 0001864  89.7290 270.4054 13.14503100164724
ONEWEB-0198             
1 48216U 21031G   24262.42517887  .00000303  00000+0  78160-3 0  9996
2 48216  87.8951  56.3501 0002104  96.5141 263.6228 13.14500670164832
ONEWEB-0189             
1 48217U 21031H   24262.43788097  .00000087  00000+0  19882-3 0  9996
2 48217  87.8952  56.3227 0002245  95.3028 264.8358 13.14502235164573
ONEWEB-0196             
1 48218U 21031J   24262.49178509  .00000250  00000+0  63860-3 0  9991
2 48218  87.8952  56.3175 0001801  95.3059 264.8276 13.14500922164588
ONEWEB-0183             
1 48219U 21031K   24262.46641823 -.00000223  00000+0 -63644-3 0  9995
2 48219  87.8952  56.3379 0001747  88.3394 271.7935 13.14502764164673
ONEWEB-0185             
1 48220U 21031L   24262.49258206  .00000241  00000+0  61500-3 0  9996
2 48220  87.8951  56.3043 0001929  86.7720 273.3631 13.14501294164600
ONEWEB-0187             
1 48221U 21031M   24262.46245963 -.00000243  00000+0 -69124-3 0  9994
2 48221  87.8952  56.3439 0001771  89.7782 270.3550 13.14502336164613
ONEWEB-0192             
1 48222U 21031N   24262.44263481 -.00000055  00000+0 -18170-3 0  9994
2 48222  87.8954  56.3455 0001827  96.4682 263.6655 13.14502527164523
ONEWEB-0219             
1 48223U 21031P   24262.42200490  .00000214  00000+0  54356-3 0  9995
2 48223  87.8952  56.3235 0001880  89.2684 270.8661 13.14500634164725
ONEWEB-0202             
1 48224U 21031Q   24262.47910875  .00000057  00000+0  11859-3 0  9992
2 48224  87.8949  56.3301 0002599  99.9487 260.1936 13.14503170164717
ONEWEB-0204             
1 48225U 21031R   24262.51320474  .00000140  00000+0  34442-3 0  9994
2 48225  87.8952  56.3353 0001460  85.0183 275.1113 13.14501220164610
ONEWEB-0205             
1 48226U 21031S   24262.48861459  .00000178  00000+0  44677-3 0  9996
2 48226  87.8948  56.3116 0001901  90.0481 270.0866 13.14500653164629
ONEWEB-0206             
1 48227U 21031T   24262.46165633 -.00000198  00000+0 -56798-3 0  9997
2 48227  87.8951  56.3044 0001859  86.6409 273.4934 13.14501131164576
ONEWEB-0182             
1 48228U 21031U   24262.45688458 -.00000198  00000+0 -56777-3 0  9999
2 48228  87.8953  56.3356 0001586  90.7570 269.3741 13.14498997164796
ONEWEB-0186             
1 48229U 21031V   24262.46799963 -.00000161  00000+0 -46761-3 0  9997
2 48229  87.8953  56.2972 0001810  94.1645 265.9692 13.14501092164744
ONEWEB-0181             
1 48230U 21031W   24262.44580293 -.00000022  00000+0 -95046-4 0  9998
2 48230  87.8957  56.3720 0001907  96.6253 263.5093 13.14502452164583
ONEWEB-0188             
1 48231U 21031X   24262.48386185 -.00000015  00000+0 -75940-4 0  9990
2 48231  87.8950  56.3589 0001790  92.0773 268.0561 13.14502660164498
ONEWEB-0220             
1 48232U 21031Y   24262.44738637 -.00000131  00000+0 -38778-3 0  9996
2 48232  87.8948  56.3251 0001965  85.7054 274.4301 13.14501594164754
ONEWEB-0165             
1 48233U 21031Z   24262.47592881 -.00000012  00000+0 -67012-4 0  9991
2 48233  87.8953  56.3424 0001890  92.9797 267.1549 13.14501364164718
ONEWEB-0199             
1 48234U 21031AA  24262.46007543 -.00000263  00000+0 -74487-3 0  9998
2 48234  87.8951  56.3137 0001579 100.2400 259.8908 13.14501355164612
ONEWEB-0203             
1 48235U 21031AB  24262.45055868 -.00000200  00000+0 -57457-3 0  9990
2 48235  87.8955  56.3170 0001805 108.9235 251.2090 13.14501037164623
ONEWEB-0197             
1 48236U 21031AC  24262.50210349  .00000289  00000+0  74449-3 0  9999
2 48236  87.8953  56.3165 0001508  85.0076 275.1226 13.14501543164543
ONEWEB-0194             
1 48237U 21031AD  24262.48069887  .00000037  00000+0  64889-4 0  9995
2 48237  87.8951  56.3143 0001641 103.0661 257.0652 13.14502336164719
ONEWEB-0193             
1 48238U 21031AE  24262.42043582  .00000178  00000+0  44507-3 0  9994
2 48238  87.8952  56.3346 0001825  97.3798 262.7539 13.14501850164656
ONEWEB-0191             
1 48239U 21031AF  24262.43152255  .00000142  00000+0  34734-3 0  9996
2 48239  87.8950  56.3128 0001831  97.2491 262.8847 13.14500902164514
ONEWEB-0195             
1 48240U 21031AG  24262.48466477  .00000073  00000+0  16147-3 0  9998
2 48240  87.8947  56.3013 0002153  94.1610 265.9766 13.14502849164507
ONEWEB-0201             
1 48241U 21031AH  24262.47355701 -.00000125  00000+0 -37260-3 0  9994
2 48241  87.8954  56.3413 0001809  92.5282 267.6054 13.14502346164730
ONEWEB-0207             
1 48242U 21031AJ  24262.45293608 -.00000196  00000+0 -56215-3 0  9999
2 48242  87.8953  56.3098 0001689  86.7997 273.3326 13.14501314164643
